CUTE-1 (CO-55)          
1 27844U 03031E   26064.55947722  .00000479  00000+0  22660-3 0  9999
2 27844  98.6779  74.4095 0010550 123.2151 237.0041 14.24262275176925
CUBESAT XI-IV (CO-57)   
1 27848U 03031J   26064.49628679  .00000394  00000+0  19211-3 0  9997
2 27848  98.6809  74.1430 0010209 139.8999 220.2934 14.23557892176620
CUBESAT XI-V            
1 28895U 05043F   26064.36633822  .00002974  00000+0  47811-3 0  9990
2 28895  98.2821 217.9088 0014469 171.1666 188.9798 14.72297036 86477
CUTE-1.7+APD II (CO-65) 
1 32785U 08021C   26064.73317218  .00008959  00000+0  58081-3 0  9991
2 32785  97.8206  44.1338 0010170  32.0987 328.0858 15.08305588969595
CANX-2                  
1 32790U 08021H   26064.71732122  .00006465  00000+0  46245-3 0  9999
2 32790  97.8563  42.6024 0011982  42.6046 317.6107 15.04745376969249
SEEDS II (CO-66)        
1 32791U 08021J   26064.53628993  .00025054  00000+0  89406-3 0  9991
2 32791  97.7512  57.7941 0002167  12.5700 347.5593 15.28864440971431
SWISSCUBE               
1 35932U 09051B   26064.71396288  .00001809  00000+0  36858-3 0  9999
2 35932  98.4101 330.7863 0006806 164.5501 195.5909 14.62247075874037
BEESAT-1                
1 35933U 09051C   26064.67072876  .00001533  00000+0  31878-3 0  9990
2 35933  98.4032 330.5905 0005030 175.5274 184.5972 14.61522598874069
ITUPSAT1                
1 35935U 09051E   26064.70852493  .00001387  00000+0  29735-3 0  9993
2 35935  98.4119 329.9276 0006991 190.8794 169.2255 14.60258403873630
TISAT 1                 
1 36799U 10035E   26064.04044411  .00027432  00000+0  10243-2 0  9998
2 36799  98.0650   1.7537 0000542 169.4760 190.6489 15.27357031851781
AEROCUBE 4.5A           
1 38767U 12048K   26064.30474714  .00100707  00000+0  11277-2 0  9998
2 38767  64.6385  35.3155 0041501 213.3687 146.4843 15.61080860356300
STRAND-1                
1 39090U 13009E   26064.45647571  .00000530  00000+0  19271-3 0  9991
2 39090  98.3882 247.2534 0008749 174.1071 186.0220 14.37090623682164
BRITE-AUSTRIA           
1 39091U 13009F   26064.49497789  .00000347  00000+0  13268-3 0  9996
2 39091  98.3951 246.5075 0010106 183.5653 176.5463 14.36493326682163
NEE-01 PEGASO           
1 39151U 13018B   26064.61215010  .00005677  00000+0  55010-3 0  9994
2 39151  98.1048 205.4803 0013675 141.5828 218.6367 14.93056867695242
POPACS 2                
1 39269U 13055E   26064.54106088  .00030408  00000+0  53115-3 0  9995
2 39269  80.9885 262.5578 0431489 166.0822 195.2751 14.87548824647781
POPACS 3                
1 39270U 13055F   26064.75759894  .00018190  00000+0  43816-3 0  9990
2 39270  81.0058 341.1670 0561003  24.6518 338.0405 14.53821250623519
ZACUBE-1 (TSHEPISOSAT)  
1 39417U 13066B   26064.46161782  .00006460  00000+0  51118-3 0  9997
2 39417  97.8184  26.2647 0041905 234.2081 125.5244 15.00273125665173
WNISAT-1                
1 39423U 13066H   26064.44421222  .00002579  00000+0  47761-3 0  9996
2 39423  97.7032 221.0629 0163279 198.2480 161.2819 14.57852965651612
TRITON-1                
1 39427U 13066M   26064.75292627  .00003663  00000+0  44606-3 0  9999
2 39427  97.8301 336.9345 0089874 210.6707 148.9235 14.81171082658775
GOMX-1                  
1 39430U 13066Q   26064.60201668  .00003092  00000+0  46961-3 0  9994
2 39430  97.6567 271.5624 0130465  50.5260 310.7401 14.69080639654709
CUBEBUG-2 (LO-74)       
1 39440U 13066AA  26064.67623897  .00008223  00000+0  77184-3 0  9996
2 39440  97.8819  13.3431 0059186  12.4274 347.8388 14.92896457661546
NEE-02 KRYSAOR          
1 39441U 13066AB  26064.54030097  .00004153  00000+0  46050-3 0  9993
2 39441  97.8820   4.5785 0068047  50.3945 310.3251 14.86129012660806
FUNCUBE-1 (AO-73)       
1 39444U 13066AE  26064.46031956  .00011590  00000+0  74915-3 0  9996
2 39444  97.8183  33.9264 0036782 193.8533 166.1688 15.07814743664021
UWE-3                   
1 39446U 13066AG  26064.65008425  .00006983  00000+0  61115-3 0  9992
2 39446  97.8595  20.1665 0048721 306.3334  53.3394 14.96123135662090
BRITE-CA1 (TORONTO)     
1 40020U 14033L   26063.32853596  .00001935  00000+0  29920-3 0  9997
2 40020  97.9558 194.3075 0077710 252.3100 106.9613 14.72445502626784
DUCHIFAT-1              
1 40021U 14033M   26064.69603516  .00061998  00000+0  11299-2 0  9998
2 40021  98.0630 110.6544 0006471  95.6180 264.5807 15.49239631639657
NANOSATC-BR1            
1 40024U 14033Q   26064.59518085  .00021514  00000+0  79058-3 0  9994
2 40024  98.0839  88.0214 0004242 159.5575 200.5833 15.27934291638147
QB50P1                  
1 40025U 14033R   26064.55301081  .00013002  00000+0  67179-3 0  9991
2 40025  98.1002  68.5561 0007870 210.4166 149.6610 15.16411477637310
QB50P2                  
1 40032U 14033Y   26064.56465483  .00010904  00000+0  61092-3 0  9993
2 40032  98.0733  55.1328 0008237 154.2543 205.9099 15.13575442636982
PERSEUS-M2              
1 40037U 14033AD  26064.81229274  .00004003  00000+0  36992-3 0  9996
2 40037  97.9875  13.3443 0010157 286.1755  73.8347 14.95141608635338
PERSEUS-M1              
1 40039U 14033AF  26064.79268667  .00003950  00000+0  36427-3 0  9997
2 40039  97.9558   7.3186 0009913 283.3525  76.6590 14.95231363635189
POLYITAN-1              
1 40042U 14033AJ  26064.61799349  .00024548  00000+0  86268-3 0  9992
2 40042  98.1048  81.3381 0009087 139.7244 220.4669 15.29339075637740
TIGRISAT                
1 40043U 14033AK  26064.41153298  .00003426  00000+0  40170-3 0  9992
2 40043  97.7663 216.9192 0050658  56.1746 304.4276 14.84701104630223
AEROCUBE 6A             
1 40045U 14033AM  26064.51873090  .00008962  00000+0  77598-3 0  9998
2 40045  97.7115 232.7181 0039146   3.5894 356.5600 14.96770360631100
AEROCUBE 6B             
1 40046U 14033AN  26064.68612554  .00009698  00000+0  81056-3 0  9994
2 40046  97.7119 232.4689 0037613 356.0403   4.0516 14.98162628631255
CANX-4                  
1 40055U 14034C   26064.58983060  .00001649  00000+0  21973-3 0  9997
2 40055  98.3283 296.0200 0012615 349.9844  10.1114 14.81049876629197
CANX-5                  
1 40056U 14034D   26064.58944980  .00001646  00000+0  21934-3 0  9990
2 40056  98.3284 296.0572 0012612 350.1508   9.9454 14.81066541620001
UKUBE-1                 
1 40074U 14037F   26064.51358203  .00013102  00000+0  77337-3 0  9991
2 40074  98.4230  57.0506 0002853 115.8299 244.3223 15.11681951632884
BRITE-PL2 (HEWELIUSZ)   
1 40119U 14049B   26064.72199476  .00004112  00000+0  38877-3 0  9999
2 40119  97.8984 176.0294 0015602  93.5209 266.7796 14.94158096625994
AEROCUBE 5C             
1 40965U 15058B   26064.68712980  .00005716  00000+0  50632-3 0  9999
2 40965  64.7669 224.4182 0130917 104.0828 257.4876 14.90813819350226
AEROCUBE 7              
1 40966U 15058C   26064.70340439  .00007242  00000+0  58641-3 0  9993
2 40966  64.7625 208.7339 0120856 103.1700 258.2931 14.94843040350480
FOX-1A (AO-85)          
1 40967U 15058D   26064.70042630  .00005287  00000+0  47790-3 0  9996
2 40967  64.7739 240.4268 0129073  97.5167 264.0629 14.90314048 98142
SINOD-D 1               
1 40968U 15058E   26064.62625141  .00007404  00000+0  60153-3 0  9993
2 40968  64.7751 223.0011 0117458  94.8707 266.5829 14.94995860101172
SNAP-3 ALICE            
1 40970U 15058G   26064.42794074  .00067939  00000+0  14829-2 0  9993
2 40970  64.7553  97.6929 0037580  70.2583 290.2601 15.43053335100791
LMRST-SAT               
1 40971U 15058H   26064.69698822  .00005316  00000+0  48255-3 0  9999
2 40971  64.7746 236.5831 0131203  99.4573 262.1396 14.89946833 98137
SNAP-3 EDDIE            
1 40972U 15058J   26064.49222010  .00067214  00000+0  14162-2 0  9994
2 40972  64.7477  88.8931 0038690  75.3609 285.1813 15.44048235102931
PROPCUBE 3              
1 40973U 15058K   26064.71436889  .00006662  00000+0  55692-3 0  9995
2 40973  64.7687 215.6329 0123774 101.2541 260.2513 14.93478208 99349
BISONSAT                
1 40974U 15058L   26064.66093681  .00014949  00000+0  77377-3 0  9990
2 40974  64.7602 147.7349 0079526  92.5058 268.5172 15.13675233 99931
SNAP-3 JIMI             
1 40975U 15058M   26064.70094829  .00009089  00000+0  64046-3 0  9999
2 40975  64.7664 186.8960 0105738  98.1415 263.1712 15.01064072 98689
PROPCUBE 1 (FLORA)      
1 40976U 15058N   26064.69184243  .00005038  00000+0  47563-3 0  9993
2 40976  64.7731 255.8448 0130360 101.7645 259.8124 14.88599395100855
SINOD-D 3               
1 40977U 15058P   26064.65977398  .00007078  00000+0  60283-3 0  9991
2 40977  64.7715 238.8937 0118781  99.8068 261.6481 14.93154833 99293
HORYU-4                 
1 41340U 16012D   26064.44225828  .00100607  00000+0  10940-2 0  9994
2 41340  30.9912  97.7021 0002347 105.9687 254.1224 15.62025345554441
RAVAN                   
1 41849U 16067B   26064.63039532  .00045504  00000+0  93760-3 0  9990
2 41849  98.0046 302.9269 0006702  19.8966 340.2541 15.45758941511656
CELTEE 1                
1 41850U 16067C   26064.59702816  .00008141  00000+0  39794-3 0  9992
2 41850  98.0818 284.0902 0000744 130.2334 229.8963 15.18528059510155
OPTICUBE 04             
1 41851U 16067D   26064.79710167  .00004123  00000+0  26334-3 0  9995
2 41851  98.0802 271.6432 0016967 106.2599 254.0496 15.09157596509578
AEROCUBE 8D             
1 41852U 16067E   26064.58830232  .00010116  00000+0  43604-3 0  9997
2 41852  98.0833 286.9054 0004526 121.8270 238.3405 15.22783311510290
AEROCUBE 8C             
1 41853U 16067F   26064.56358573  .00011286  00000+0  48265-3 0  9996
2 41853  98.0697 284.2439 0006595  65.2178 294.9743 15.23005612510287
CORVUS BC2              
1 42846U 17042X   26064.34100590  .00006619  00000+0  46248-3 0  9996
2 42846  97.3933 229.8441 0014291 107.0086 253.2709 15.05555792471430
CORVUS BC1              
1 42847U 17042Y   26064.41460308  .00005628  00000+0  39184-3 0  9991
2 42847  97.3962 230.6575 0013210  84.9705 275.3030 15.05768630471475
